[{"OBJECT_NAME":"STARLINK-1964","OBJECT_ID":"2021-009T","EPOCH":"2026-03-09T21:31:58.383264","MEAN_MOTION":15.67134759,"ECCENTRICITY":0.00046841,"INCLINATION":53.045,"RA_OF_ASC_NODE":328.1813,"ARG_OF_PERICENTER":312.9393,"MEAN_ANOMALY":47.1229,"EPHEMERIS_TYPE":0,"CLASSIFICATION_TYPE":"U","NORAD_CAT_ID":47565,"ELEMENT_SET_NO":999,"REV_AT_EPOCH":28156,"BSTAR":0.00093079288,"MEAN_MOTION_DOT":0.00102212,"MEAN_MOTION_DDOT":0},{"OBJECT_NAME":"STARLINK-36694","OBJECT_ID":"2026-022F","EPOCH":"2026-03-09T22:00:01.999584","MEAN_MOTION":15.72360469,"ECCENTRICITY":0.00015317,"INCLINATION":97.2843,"RA_OF_ASC_NODE":102.9045,"ARG_OF_PERICENTER":71.9582,"MEAN_ANOMALY":320.2172,"EPHEMERIS_TYPE":0,"CLASSIFICATION_TYPE":"U","NORAD_CAT_ID":67653,"ELEMENT_SET_NO":999,"REV_AT_EPOCH":607,"BSTAR":-0.016435758,"MEAN_MOTION_DOT":-0.01891106,"MEAN_MOTION_DDOT":0}]
